OBJECT_NAME,OBJECT_ID,EPOCH,MEAN_MOTION,ECCENTRICITY,INCLINATION,RA_OF_ASC_NODE,ARG_OF_PERICENTER,MEAN_ANOMALY,EPHEMERIS_TYPE,CLASSIFICATION_TYPE,NORAD_CAT_ID,ELEMENT_SET_NO,REV_AT_EPOCH,BSTAR,MEAN_MOTION_DOT,MEAN_MOTION_DDOT
FENGYUN 3D,2017-072A,2026-06-19T21:30:03.675168,14.19739639,.0002473,99.0132,145.3674,59.2193,300.9225,0,U,43010,999,44537,-.2352E-4,-.96E-6,0
NOAA 20 (JPSS-1),2017-073A,2026-06-19T19:41:56.174784,14.19512169,.0000361,98.7770,110.2600,115.3540,244.7674,0,U,43013,999,44484,.38813E-4,.38E-6,0
GOES 17,2018-022A,2026-06-19T19:17:44.368800,1.00269497,.0000553,0.9448,85.6637,26.9886,355.2755,0,U,43226,999,3045,0,-.188E-5,0
SENTINEL-3B,2018-039A,2026-06-19T17:08:43.005696,14.26735355,.0000727,98.6248,238.2105,93.2491,266.8773,0,U,43437,999,42448,.47152E-4,.7E-6,0
FENGYUN 2H,2018-050A,2026-06-19T22:05:49.700832,1.00269309,.0001913,3.0393,79.0438,137.5601,102.3745,0,U,43491,999,2946,0,-.136E-5,0
METOP-C,2018-087A,2026-06-19T19:30:56.604096,14.21512743,.0001855,98.6644,230.3688,126.0748,234.0601,0,U,43689,999,39520,.50875E-4,.68E-6,0
GEO-KOMPSAT-2A,2018-100A,2026-06-19T18:37:10.758144,1.00272693,.0002156,0.0474,153.1154,293.2154,229.2186,0,U,43823,999,2765,0,-.349E-5,0
METEOR-M2 2,2019-038A,2026-06-19T20:15:02.575584,14.24365678,.0001984,98.9148,158.1685,44.0760,316.0576,0,U,44387,999,36167,-.92883E-4,-.261E-5,0
ARKTIKA-M 1,2021-016A,2026-06-17T11:46:36.471360,2.00622504,.72885287,63.2922,57.5948,269.9420,14.6012,0,U,47719,999,3879,0,-.21E-5,0
FENGYUN 3E,2021-062A,2026-06-19T19:24:55.312992,14.19902881,.0002871,98.7492,174.1880,81.8036,278.3465,0,U,49008,999,25695,-.18037E-3,-.427E-5,0
GOES 18,2022-021A,2026-06-19T19:04:00.687360,1.00271801,.0000394,0.0365,172.6511,326.3071,278.0456,0,U,51850,999,661,0,.91E-6,0
NOAA 21 (JPSS-2),2022-150A,2026-06-19T18:47:40.761888,14.19565901,.000181,98.7058,109.5288,148.3868,211.7417,0,U,54234,999,18691,.4733E-4,.56E-6,0
METEOSAT-12 (MTG-I1),2022-170C,2026-06-19T18:49:38.806752,1.00273379,.0003294,0.7417,23.4562,70.9029,95.6585,0,U,54743,999,1300,0,-.14E-6,0
TIANMU-1 03,2023-039A,2026-06-19T19:56:38.418144,15.47348893,.0004117,97.5240,344.9032,92.5035,267.6686,0,U,55973,999,18124,.26623E-3,.13517E-3,0
TIANMU-1 04,2023-039B,2026-06-19T19:40:00.996672,15.47947551,.0004791,97.5175,344.0453,88.7455,271.4343,0,U,55974,999,18125,.2586E-3,.13404E-3,0
TIANMU-1 05,2023-039C,2026-06-19T19:29:07.338336,15.47273450,.0004059,97.5221,344.4974,109.0470,251.1220,0,U,55975,999,18122,.24865E-3,.12584E-3,0
TIANMU-1 06,2023-039D,2026-06-19T19:45:07.034112,15.47851329,.0004356,97.5227,345.1474,103.8130,256.3605,0,U,55976,999,18125,.26112E-3,.1349E-3,0
FENGYUN 3G,2023-055A,2026-06-19T19:25:34.228416,15.52729735,.0007034,49.9936,332.5088,307.4627,52.5699,0,U,56232,999,18041,.32411E-3,.20023E-3,0
METEOR-M2 3,2023-091A,2026-06-19T20:07:43.768128,14.24047001,.0004497,98.6081,225.7628,148.6715,211.4732,0,U,57166,999,15489,.11992E-4,-.16E-6,0
TIANMU-1 07,2023-101A,2026-06-19T20:20:09.674016,15.29833016,.0004197,97.2587,221.4548,116.1306,244.0367,0,U,57399,999,16205,.17411E-3,.4957E-4,0
TIANMU-1 08,2023-101B,2026-06-19T19:32:06.901728,15.29837431,.0005659,97.2576,221.1924,108.7289,251.4566,0,U,57400,999,16204,.17842E-3,.5083E-4,0
TIANMU-1 09,2023-101C,2026-06-19T20:42:20.506176,15.29869674,.0004701,97.2534,220.6545,120.8124,239.3580,0,U,57401,999,16205,.17968E-3,.5124E-4,0
TIANMU-1 10,2023-101D,2026-06-19T19:55:49.075968,15.29841041,.00063,97.2614,221.6761,119.3386,240.8485,0,U,57402,999,16204,.18215E-3,.5192E-4,0
FENGYUN 3F,2023-111A,2026-06-19T20:43:08.676768,14.19939545,.0001586,98.6835,240.8222,91.4419,268.6939,0,U,57490,999,14924,.41351E-4,.44E-6,0
ARKTIKA-M 2,2023-198A,2026-06-17T18:13:15.259296,2.00612717,.69023443,63.2243,154.2920,267.4286,18.7609,0,U,58584,999,1833,0,.145E-5,0
TIANMU-1 11,2023-205A,2026-06-19T19:20:17.094624,15.27017885,.0008639,97.3445,192.3216,8.2978,351.8402,0,U,58645,999,13792,.17389E-3,.4541E-4,0
TIANMU-1 12,2023-205B,2026-06-19T20:12:03.749184,15.26983757,.0006413,97.3435,192.1122,353.9140,6.2020,0,U,58646,999,13791,.17824E-3,.465E-4,0
TIANMU-1 13,2023-205C,2026-06-19T19:24:23.829696,15.26836570,.0005602,97.3462,192.3525,330.9717,29.1210,0,U,58647,999,13790,.18218E-3,.4732E-4,0
TIANMU-1 14,2023-205D,2026-06-19T20:37:21.273600,15.26881548,.0006557,97.3397,191.5821,334.9295,25.1625,0,U,58648,999,13791,.17806E-3,.4631E-4,0
TIANMU-1 19,2023-208A,2026-06-19T20:02:22.452576,15.31606964,.0003658,97.4508,287.1482,315.9217,44.1732,0,U,58660,999,13773,.21643E-3,.6527E-4,0
TIANMU-1 20,2023-208B,2026-06-19T19:19:49.956384,15.32797101,.0005817,97.4450,287.7566,322.9854,37.0986,0,U,58661,999,13782,.21486E-3,.6729E-4,0
