FENGYUN 3D              
1 43010U 17072A   26170.89587587 -.00000096  00000+0 -23520-4 0  9990
2 43010  99.0132 145.3674 0002473  59.2193 300.9225 14.19739639445375
NOAA 20 (JPSS-1)        
1 43013U 17073A   26170.82078906  .00000038  00000+0  38813-4 0  9992
2 43013  98.7770 110.2600 0000361 115.3540 244.7674 14.19512169444847
GOES 17                 
1 43226U 18022A   26170.80398575 -.00000188  00000+0  00000+0 0  9997
2 43226   0.9448  85.6637 0000553  26.9886 355.2755  1.00269497 30453
SENTINEL-3B             
1 43437U 18039A   26170.71438664  .00000070  00000+0  47152-4 0  9996
2 43437  98.6248 238.2105 0000727  93.2491 266.8773 14.26735355424487
FENGYUN 2H              
1 43491U 18050A   26170.92071413 -.00000136  00000+0  00000+0 0  9997
2 43491   3.0393  79.0438 0001913 137.5601 102.3745  1.00269309 29462
METOP-C                 
1 43689U 18087A   26170.81315514  .00000068  00000+0  50875-4 0  9990
2 43689  98.6644 230.3688 0001855 126.0748 234.0601 14.21512743395201
GEO-KOMPSAT-2A          
1 43823U 18100A   26170.77581896 -.00000349  00000+0  00000+0 0  9992
2 43823   0.0474 153.1154 0002156 293.2154 229.2186  1.00272693 27657
METEOR-M2 2             
1 44387U 19038A   26170.84377981 -.00000261  00000+0 -92883-4 0  9994
2 44387  98.9148 158.1685 0001984  44.0760 316.0576 14.24365678361671
ARKTIKA-M 1             
1 47719U 21016A   26168.49069990 -.00000210  00000+0  00000+0 0  9999
2 47719  63.2922  57.5948 7288528 269.9420  14.6012  2.00622504 38796
FENGYUN 3E              
1 49008U 21062A   26170.80897353 -.00000427  00000+0 -18037-3 0  9997
2 49008  98.7492 174.1880 0002871  81.8036 278.3465 14.19902881256950
GOES 18                 
1 51850U 22021A   26170.79445240  .00000091  00000+0  00000+0 0  9995
2 51850   0.0365 172.6511 0000394 326.3071 278.0456  1.00271801  6611
NOAA 21 (JPSS-2)        
1 54234U 22150A   26170.78311067  .00000056  00000+0  47330-4 0  9998
2 54234  98.7058 109.5288 0001810 148.3868 211.7417 14.19565901186917
METEOSAT-12 (MTG-I1)    
1 54743U 22170C   26170.78447693 -.00000014  00000+0  00000+0 0  9993
2 54743   0.7417  23.4562 0003294  70.9029  95.6585  1.00273379 13005
TIANMU-1 03             
1 55973U 23039A   26170.83100021  .00013517  00000+0  26623-3 0  9995
2 55973  97.5240 344.9032 0004117  92.5035 267.6686 15.47348893181249
TIANMU-1 04             
1 55974U 23039B   26170.81945598  .00013404  00000+0  25860-3 0  9997
2 55974  97.5175 344.0453 0004791  88.7455 271.4343 15.47947551181256
TIANMU-1 05             
1 55975U 23039C   26170.81189049  .00012584  00000+0  24865-3 0  9991
2 55975  97.5221 344.4974 0004059 109.0470 251.1220 15.47273450181228
TIANMU-1 06             
1 55976U 23039D   26170.82299808  .00013490  00000+0  26112-3 0  9992
2 55976  97.5227 345.1474 0004356 103.8130 256.3605 15.47851329181257
FENGYUN 3G              
1 56232U 23055A   26170.80942394  .00020023  00000+0  32411-3 0  9998
2 56232  49.9936 332.5088 0007034 307.4627  52.5699 15.52729735180418
METEOR-M2 3             
1 57166U 23091A   26170.83870102 -.00000016  00000+0  11992-4 0  9998
2 57166  98.6081 225.7628 0004497 148.6715 211.4732 14.24047001154897
TIANMU-1 07             
1 57399U 23101A   26170.84733419  .00004957  00000+0  17411-3 0  9996
2 57399  97.2587 221.4548 0004197 116.1306 244.0367 15.29833016162056
TIANMU-1 08             
1 57400U 23101B   26170.81396877  .00005083  00000+0  17842-3 0  9998
2 57400  97.2576 221.1924 0005659 108.7289 251.4566 15.29837431162040
TIANMU-1 09             
1 57401U 23101C   26170.86273734  .00005124  00000+0  17968-3 0  9995
2 57401  97.2534 220.6545 0004701 120.8124 239.3580 15.29869674162054
TIANMU-1 10             
1 57402U 23101D   26170.83042912  .00005192  00000+0  18215-3 0  9996
2 57402  97.2614 221.6761 0006300 119.3386 240.8485 15.29841041162043
FENGYUN 3F              
1 57490U 23111A   26170.86329487  .00000044  00000+0  41351-4 0  9991
2 57490  98.6835 240.8222 0001586  91.4419 268.6939 14.19939545149247
ARKTIKA-M 2             
1 58584U 23198A   26168.75920439  .00000145  00000+0  00000+0 0  9993
2 58584  63.2243 154.2920 6902344 267.4286  18.7609  2.00612717 18330
TIANMU-1 11             
1 58645U 23205A   26170.80575341  .00004541  00000+0  17389-3 0  9993
2 58645  97.3445 192.3216 0008639   8.2978 351.8402 15.27017885137925
TIANMU-1 12             
1 58646U 23205B   26170.84171006  .00004650  00000+0  17824-3 0  9993
2 58646  97.3435 192.1122 0006413 353.9140   6.2020 15.26983757137913
TIANMU-1 13             
1 58647U 23205C   26170.80860914  .00004732  00000+0  18218-3 0  9992
2 58647  97.3462 192.3525 0005602 330.9717  29.1210 15.26836570137901
TIANMU-1 14             
1 58648U 23205D   26170.85927400  .00004631  00000+0  17806-3 0  9992
2 58648  97.3397 191.5821 0006557 334.9295  25.1625 15.26881548137916
TIANMU-1 19             
1 58660U 23208A   26170.83498209  .00006527  00000+0  21643-3 0  9997
2 58660  97.4508 287.1482 0003658 315.9217  44.1732 15.31606964137735
TIANMU-1 20             
1 58661U 23208B   26170.80543931  .00006729  00000+0  21486-3 0  9997
2 58661  97.4450 287.7566 0005817 322.9854  37.0986 15.32797101137822
